APRIZESAT 2             
1 28366U 04025A   26115.75196362  .00000150  00000+0  59502-4 0  9990
2 28366  98.0973 284.7131 0106545  48.8904 312.1423 14.38017011144105
SAUDICOMSAT 1           
1 28369U 04025D   26115.76820547  .00000281  00000+0  75579-4 0  9990
2 28369  98.5794 124.4832 0032121 181.8996 178.2083 14.55431680156500
SAUDICOMSAT 2           
1 28370U 04025E   26115.74882250  .00000293  00000+0  86654-4 0  9998
2 28370  98.6665 126.5088 0056460  59.0412 301.6313 14.49945375152505
APRIZESAT 1             
1 28372U 04025G   26115.63830807  .00000207  00000+0  63180-4 0  9993
2 28372  98.6326 124.9286 0043705 316.2330  43.5403 14.51749256154280
NANOSAT-1               
1 28493U 04049B   26115.84391554  .00001161  00000+0  16053-3 0  9993
2 28493  98.2194 251.2521 0005311  99.9118 260.2693 14.80050036147700
SAUDICOMSAT 7           
1 31119U 07012C   26115.83365242  .00000779  00000+0  14848-3 0  9993
2 31119  98.3745  88.9065 0055834   1.9572 358.1839 14.66048230 14767
SAUDICOMSAT 6           
1 31121U 07012E   26115.82106096  .00000541  00000+0  11284-3 0  9993
2 31121  98.4060  82.3806 0072803 129.1855 231.5843 14.62490274 12531
SAUDICOMSAT 5           
1 31124U 07012H   26115.87968272  .00000700  00000+0  12934-3 0  9993
2 31124  98.3457  89.7116 0046173 290.8811  68.7452 14.68093431 15929
SAUDICOMSAT 3           
1 31125U 07012J   26115.86242751  .00000733  00000+0  12806-3 0  9994
2 31125  98.3111  90.2491 0038307 215.9243 143.9387 14.70624884 17130
SAUDICOMSAT 4           
1 31127U 07012L   26115.81863330  .00000749  00000+0  14706-3 0  9991
2 31127  98.3949  87.3364 0064679  62.5530 298.2230 14.64443753 13621
APRIZESAT 4             
1 35684U 09041D   26115.72634659  .00000758  00000+0  96939-4 0  9996
2 35684  98.1424 190.0017 0044421 130.7481 229.7602 14.83797080903583
APRIZESAT 3             
1 35686U 09041F   26115.39789321  .00001064  00000+0  97320-4 0  9994
2 35686  98.1994 266.1202 0060838 240.9247 118.5872 14.96056044908482
S-NET D                 
1 43186U 18014G   26115.73833631  .00005233  00000+0  27447-3 0  9994
2 43186  97.5397  20.8664 0007843 187.9824 172.1285 15.16166418450814
S-NET B                 
1 43187U 18014H   26115.68276867  .00005283  00000+0  27729-3 0  9999
2 43187  97.5403  20.7960 0008590 184.5415 175.5741 15.16135857450806
S-NET A                 
1 43188U 18014J   26115.73746654  .00005247  00000+0  27510-3 0  9990
2 43188  97.5415  21.0494 0008480 184.7608 175.3545 15.16173315450812
S-NET C                 
1 43189U 18014K   26115.75235309  .00005355  00000+0  28099-3 0  9996
2 43189  97.5430  21.1309 0010070 178.9352 181.1904 15.16128162449367
SALSAT                  
1 46495U 20068K   26115.73859803  .00008478  00000+0  30336-3 0  9996
2 46495  97.8866 115.6436 0011520 121.8273 238.4089 15.29000493307347
OOV-CUBE (TUBSAT-30)    
1 60240U 24128F   26115.21865324  .00002518  00000+0  19941-3 0  9997
2 60240  61.9958  50.2328 0050615 122.1099 238.4920 15.02502609 98154
LPNTSAT-001 (IOD-1)     
1 68408U 26065A   26115.62072985  .00002338  00000+0  11668-3 0  9999
2 68408  97.4087 357.2309 0016893 181.6654 178.4526 15.18368758  4289
